ONEWEB-0162             
1 48056U 21025Q   26166.14925247 -.00000369  00000+0 -10450-2 0  9999
2 48056  87.8955 320.6291 0001994  94.2674 265.8683 13.13469403253276
ONEWEB-0155             
1 48057U 21025R   26166.15615745 -.00000307  00000+0 -87508-3 0  9991
2 48057  87.8956 320.6241 0001803 101.9687 258.1644 13.13470202253419
ONEWEB-0149             
1 48058U 21025S   26166.17817566  .00000271  00000+0  70632-3 0  9997
2 48058  87.8960 320.6233 0002014  93.6336 266.5023 13.13470224253226
ONEWEB-0148             
1 48059U 21025T   26166.14092368 -.00000252  00000+0 -72386-3 0  9999
2 48059  87.8952 320.6374 0002428  93.5830 266.5577 13.13470328253343
ONEWEB-0160             
1 48060U 21025U   26166.15784806 -.00000251  00000+0 -72331-3 0  9996
2 48060  87.8951 320.6303 0001451  73.8363 286.2926 13.13471246253294
ONEWEB-0163             
1 48061U 21025V   26166.14260859 -.00000315  00000+0 -89634-3 0  9998
2 48061  87.8958 320.6274 0001959 104.1923 255.9424 13.13471115253417
ONEWEB-0159             
1 48062U 21025W   26166.13414938 -.00000139  00000+0 -41663-3 0  9991
2 48062  87.8962 320.6227 0001911 103.8526 256.2816 13.13470462253338
ONEWEB-0164             
1 48063U 21025X   26166.19171096  .00000235  00000+0  60727-3 0  9990
2 48063  87.8961 320.6178 0001753  94.9595 265.1734 13.13469317253327
ONEWEB-0167             
1 48064U 21025Y   26166.14344920 -.00000325  00000+0 -92550-3 0  9995
2 48064  87.8951 320.6374 0001654 117.6806 242.4491 13.13468223253304
ONEWEB-0166             
1 48065U 21025Z   26166.16630247 -.00000126  00000+0 -37910-3 0  9996
2 48065  87.8961 320.6042 0002018  96.7391 263.3968 13.13471907253381
ONEWEB-0151             
1 48066U 21025AA  26166.16800368 -.00000062  00000+0 -20392-3 0  9995
2 48066  87.8952 320.6207 0001732  99.8143 260.3182 13.13471659253329
ONEWEB-0170             
1 48067U 21025AB  26166.17647363  .00000138  00000+0  34308-3 0  9995
2 48067  87.8954 320.6210 0001358  94.5116 265.6168 13.13470729253286
ONEWEB-0168             
1 48068U 21025AC  26166.16123447 -.00000212  00000+0 -61606-3 0  9993
2 48068  87.8960 320.6238 0001961 100.6981 259.4369 13.13470806253294
ONEWEB-0173             
1 48069U 21025AD  26166.15277093 -.00000372  00000+0 -10547-2 0  9994
2 48069  87.8954 320.6271 0001896 107.8623 252.2713 13.13470095253535
ONEWEB-0171             
1 48070U 21025AE  26166.19001964  .00000273  00000+0  71262-3 0  9992
2 48070  87.8951 320.6279 0001719  97.5755 262.5569 13.13469591253359
ONEWEB-0172             
1 48071U 21025AF  26166.16969420  .00000018  00000+0  15309-4 0  9998
2 48071  87.8956 320.6218 0001782 102.2439 257.8890 13.13471840254244
ONEWEB-0174             
1 48072U 21025AG  26165.92255154 -.00000278  00000+0 -79708-3 0  9996
2 48072  87.8956 320.6707 0001987  96.7907 263.3448 13.13470327253533
ONEWEB-0175             
1 48073U 21025AH  26166.18155703  .00000293  00000+0  76782-3 0  9999
2 48073  87.8962 320.6030 0001489 101.6149 258.5148 13.13470775253227
ONEWEB-0177             
1 48074U 21025AJ  26165.96486808  .00000230  00000+0  59598-3 0  9995
2 48074  87.8958 320.6645 0002003 100.2452 259.8903 13.13470691253387
ONEWEB-0178             
1 48075U 21025AK  26166.13597236 -.00000189  00000+0 -55212-3 0  9998
2 48075  87.8944 320.6432 0001707 104.4270 255.7048 13.13468440253453
ONEWEB-0108             
1 48076U 21025AL  26166.17139529  .00000165  00000+0  41577-3 0  9991
2 48076  87.8959 320.6148 0001900  90.2926 269.8421 13.13470538253383
ONEWEB-0169             
1 48077U 21025AM  26166.12738063  .00000074  00000+0  16777-3 0  9998
2 48077  87.8954 320.6316 0001938  96.1898 263.9452 13.13469955252031
ONEWEB-0176             
1 48210U 21031A   26166.04769397 -.00000087  00000+0 -26862-3 0  9991
2 48210  87.8963 290.1255 0001880 103.3467 256.7872 13.14503375248039
ONEWEB-0184             
1 48211U 21031B   26166.09685125  .00000236  00000+0  60332-3 0  9997
2 48211  87.8969 290.1165 0001459 124.8705 235.2562 13.14502708248016
ONEWEB-0179             
1 48212U 21031C   26165.84870559  .00000156  00000+0  46134-4 0  9993
2 48212  87.8987 287.5353 0218652 264.9161  92.7043 14.25521544248712
ONEWEB-0180             
1 48213U 21031D   26166.10002639  .00000212  00000+0  53607-3 0  9995
2 48213  87.8966 290.1120 0002166 112.2863 247.8497 13.14502767247940
ONEWEB-0218             
1 48214U 21031E   26166.04610779  .00000030  00000+0  47580-4 0  9991
2 48214  87.8971 290.1218 0001752 128.4255 231.7032 13.14502073248093
ONEWEB-0209             
1 48215U 21031F   26166.03499720  .00000144  00000+0  35414-3 0  9990
2 48215  87.8961 290.1413 0002129 104.2592 255.8774 13.14501858248095
ONEWEB-0198             
1 48216U 21031G   26166.09540958  .00000161  00000+0  40081-3 0  9992
2 48216  87.8953 290.1287 0002039 113.5580 246.5764 13.14502419248210
ONEWEB-0189             
1 48217U 21031H   26165.87960271  .00000181  00000+0  45396-3 0  9998
2 48217  87.8967 290.1576 0001951 111.1020 249.0318 13.14503262247929
