OBJECT_NAME,OBJECT_ID,EPOCH,MEAN_MOTION,ECCENTRICITY,INCLINATION,RA_OF_ASC_NODE,ARG_OF_PERICENTER,MEAN_ANOMALY,EPHEMERIS_TYPE,CLASSIFICATION_TYPE,NORAD_CAT_ID,ELEMENT_SET_NO,REV_AT_EPOCH,BSTAR,MEAN_MOTION_DOT,MEAN_MOTION_DDOT
ONEWEB-0162,2021-025Q,2026-06-15T03:34:55.413408,13.13469403,.0001994,87.8955,320.6291,94.2674,265.8683,0,U,48056,999,25327,-.1045E-2,-.369E-5,0
ONEWEB-0155,2021-025R,2026-06-15T03:44:52.003680,13.13470202,.0001803,87.8956,320.6241,101.9687,258.1644,0,U,48057,999,25341,-.87508E-3,-.307E-5,0
ONEWEB-0149,2021-025S,2026-06-15T04:16:34.377024,13.13470224,.0002014,87.8960,320.6233,93.6336,266.5023,0,U,48058,999,25322,.70632E-3,.271E-5,0
ONEWEB-0148,2021-025T,2026-06-15T03:22:55.805952,13.13470328,.0002428,87.8952,320.6374,93.5830,266.5577,0,U,48059,999,25334,-.72386E-3,-.252E-5,0
ONEWEB-0160,2021-025U,2026-06-15T03:47:18.072384,13.13471246,.0001451,87.8951,320.6303,73.8363,286.2926,0,U,48060,999,25329,-.72331E-3,-.251E-5,0
ONEWEB-0163,2021-025V,2026-06-15T03:25:21.382176,13.13471115,.0001959,87.8958,320.6274,104.1923,255.9424,0,U,48061,999,25341,-.89634E-3,-.315E-5,0
ONEWEB-0159,2021-025W,2026-06-15T03:13:10.506432,13.13470462,.0001911,87.8962,320.6227,103.8526,256.2816,0,U,48062,999,25333,-.41663E-3,-.139E-5,0
ONEWEB-0164,2021-025X,2026-06-15T04:36:03.826944,13.13469317,.0001753,87.8961,320.6178,94.9595,265.1734,0,U,48063,999,25332,.60727E-3,.235E-5,0
ONEWEB-0167,2021-025Y,2026-06-15T03:26:34.010880,13.13468223,.0001654,87.8951,320.6374,117.6806,242.4491,0,U,48064,999,25330,-.9255E-3,-.325E-5,0
ONEWEB-0166,2021-025Z,2026-06-15T03:59:28.533408,13.13471907,.0002018,87.8961,320.6042,96.7391,263.3968,0,U,48065,999,25338,-.3791E-3,-.126E-5,0
ONEWEB-0151,2021-025AA,2026-06-15T04:01:55.517952,13.13471659,.0001732,87.8952,320.6207,99.8143,260.3182,0,U,48066,999,25332,-.20392E-3,-.62E-6,0
ONEWEB-0170,2021-025AB,2026-06-15T04:14:07.321632,13.13470729,.0001358,87.8954,320.6210,94.5116,265.6168,0,U,48067,999,25328,.34308E-3,.138E-5,0
ONEWEB-0168,2021-025AC,2026-06-15T03:52:10.658208,13.13470806,.0001961,87.8960,320.6238,100.6981,259.4369,0,U,48068,999,25329,-.61606E-3,-.212E-5,0
ONEWEB-0173,2021-025AD,2026-06-15T03:39:59.408352,13.13470095,.0001896,87.8954,320.6271,107.8623,252.2713,0,U,48069,999,25353,-.10547E-2,-.372E-5,0
ONEWEB-0171,2021-025AE,2026-06-15T04:33:37.696896,13.13469591,.0001719,87.8951,320.6279,97.5755,262.5569,0,U,48070,999,25335,.71262E-3,.273E-5,0
ONEWEB-0172,2021-025AF,2026-06-15T04:04:21.578880,13.13471840,.0001782,87.8956,320.6218,102.2439,257.8890,0,U,48071,999,25424,.15309E-4,.18E-6,0
ONEWEB-0174,2021-025AG,2026-06-14T22:08:28.453056,13.13470327,.0001987,87.8956,320.6707,96.7907,263.3448,0,U,48072,999,25353,-.79708E-3,-.278E-5,0
ONEWEB-0175,2021-025AH,2026-06-15T04:21:26.527392,13.13470775,.0001489,87.8962,320.6030,101.6149,258.5148,0,U,48073,999,25322,.76782E-3,.293E-5,0
ONEWEB-0177,2021-025AJ,2026-06-14T23:09:24.602112,13.13470691,.0002003,87.8958,320.6645,100.2452,259.8903,0,U,48074,999,25338,.59598E-3,.23E-5,0
ONEWEB-0178,2021-025AK,2026-06-15T03:15:48.011904,13.13468440,.0001707,87.8944,320.6432,104.4270,255.7048,0,U,48075,999,25345,-.55212E-3,-.189E-5,0
ONEWEB-0108,2021-025AL,2026-06-15T04:06:48.553056,13.13470538,.00019,87.8959,320.6148,90.2926,269.8421,0,U,48076,999,25338,.41577E-3,.165E-5,0
ONEWEB-0169,2021-025AM,2026-06-15T03:03:25.686432,13.13469955,.0001938,87.8954,320.6316,96.1898,263.9452,0,U,48077,999,25203,.16777E-3,.74E-6,0
ONEWEB-0176,2021-031A,2026-06-15T01:08:40.759008,13.14503375,.000188,87.8963,290.1255,103.3467,256.7872,0,U,48210,999,24803,-.26862E-3,-.87E-6,0
ONEWEB-0184,2021-031B,2026-06-15T02:19:27.948000,13.14502708,.0001459,87.8969,290.1165,124.8705,235.2562,0,U,48211,999,24801,.60332E-3,.236E-5,0
ONEWEB-0179,2021-031C,2026-06-14T20:22:08.162976,14.25521544,.02186526,87.8987,287.5353,264.9161,92.7043,0,U,48212,999,24871,.46133525E-4,.156E-5,0
ONEWEB-0180,2021-031D,2026-06-15T02:24:02.280096,13.14502767,.0002166,87.8966,290.1120,112.2863,247.8497,0,U,48213,999,24794,.53607E-3,.212E-5,0
ONEWEB-0218,2021-031E,2026-06-15T01:06:23.713056,13.14502073,.0001752,87.8971,290.1218,128.4255,231.7032,0,U,48214,999,24809,.4758E-4,.3E-6,0
ONEWEB-0209,2021-031F,2026-06-15T00:50:23.758080,13.14501858,.0002129,87.8961,290.1413,104.2592,255.8774,0,U,48215,999,24809,.35414E-3,.144E-5,0
ONEWEB-0198,2021-031G,2026-06-15T02:17:23.387712,13.14502419,.0002039,87.8953,290.1287,113.5580,246.5764,0,U,48216,999,24821,.40081E-3,.161E-5,0
ONEWEB-0189,2021-031H,2026-06-14T21:06:37.674144,13.14503262,.0001951,87.8967,290.1576,111.1020,249.0318,0,U,48217,999,24792,.45396E-3,.181E-5,0
